{"type": "FeatureCollection", "features": [ {"type": "Feature", "properties": {"norad_id": 33492, "name": "GOSAT (IBUKI)", "group": "resource", "lat": 49.74584245833952, "lon": 78.29064887334692, "alt_km": 663.8056055399074, "timestamp": "2025-12-05T05:43:14.771082+00:00", "meta": {"OBJECT_NAME": "GOSAT (IBUKI)", "OBJECT_ID": "2009-002A", "EPOCH": "2025-12-04T13:07:41.435040", "MEAN_MOTION": 14.67546506, "ECCENTRICITY": 9.34e-05, "INCLINATION": 98.077, "RA_OF_ASC_NODE": 87.2643, "ARG_OF_PERICENTER": 82.6691, "MEAN_ANOMALY": 277.462, "EPHEMERIS_TYPE": 0, "CLASSIFICATION_TYPE": "U", "NORAD_CAT_ID": 33492, "ELEMENT_SET_NO": 999, "REV_AT_EPOCH": 90291, "BSTAR": 0.00032095, "MEAN_MOTION_DOT": 1.773e-05, "MEAN_MOTION_DDOT": 0}, "tle": {"line1": "1 33492U 09002A   25338.54700735  .00001773  00000+0  32095-3 0  9993", "line2": "2 33492  98.0770  87.2643 0000934  82.6691 277.4620 14.67546506902915"}}, "geometry": {"type": "Point", "coordinates": [78.29064887334692, 49.74584245833952]}}, {"type": "Feature", "properties": {"norad_id": 35681, "name": "DEIMOS-1", "group": "resource", "lat": -69.58805989742027, "lon": 161.55354171677752, "alt_km": 654.4613804801602, "timestamp": "2025-12-05T05:43:14.771093+00:00", "meta": {"OBJECT_NAME": "DEIMOS-1", "OBJECT_ID": "2009-041A", "EPOCH": "2025-12-04T17:01:01.499232", "MEAN_MOTION": 14.7493367, "ECCENTRICITY": 0.0002693, "INCLINATION": 97.7146, "RA_OF_ASC_NODE": 139.6867, "ARG_OF_PERICENTER": 94.7346, "MEAN_ANOMALY": 265.4171, "EPHEMERIS_TYPE": 0, "CLASSIFICATION_TYPE": "U", "NORAD_CAT_ID": 35681, "ELEMENT_SET_NO": 999, "REV_AT_EPOCH": 87821, "BSTAR": 0.0002052, "MEAN_MOTION_DOT": 1.331e-05, "MEAN_MOTION_DDOT": 0}, "tle": {"line1": "1 35681U 09041A   25338.70904513  .00001331  00000+0  20520-3 0  9996", "line2": "2 35681  97.7146 139.6867 0002693  94.7346 265.4171 14.74933670878218"}}, "geometry": {"type": "Point", "coordinates": [161.55354171677752, -69.58805989742027]}}, {"type": "Feature", "properties": {"norad_id": 35682, "name": "DUBAISAT-1", "group": "resource", "lat": -52.55280189825564, "lon": -80.5235866725689, "alt_km": 655.5820343066671, "timestamp": "2025-12-05T05:43:14.771104+00:00", "meta": {"OBJECT_NAME": "DUBAISAT-1", "OBJECT_ID": "2009-041B", "EPOCH": "2025-12-04T09:07:21.717408", "MEAN_MOTION": 14.74567058, "ECCENTRICITY": 0.0010119, "INCLINATION": 97.9787, "RA_OF_ASC_NODE": 109.1835, "ARG_OF_PERICENTER": 343.1086, "MEAN_ANOMALY": 16.9784, "EPHEMERIS_TYPE": 0, "CLASSIFICATION_TYPE": "U", "NORAD_CAT_ID": 35682, "ELEMENT_SET_NO": 999, "REV_AT_EPOCH": 87638, "BSTAR": 0.00037197, "MEAN_MOTION_DOT": 2.429e-05, "MEAN_MOTION_DDOT": 0}, "tle": {"line1": "1 35682U 09041B   25338.38011247  .00002429  00000+0  37197-3 0  9991", "line2": "2 35682  97.9787 109.1835 0010119 343.1086  16.9784 14.74567058876381"}}, "geometry": {"type": "Point", "coordinates": [-80.5235866725689, -52.55280189825564]}}, {"type": "Feature", "properties": {"norad_id": 35931, "name": "OCEANSAT-2", "group": "resource", "lat": -81.4811953772046, "lon": 55.478694818280196, "alt_km": 913.0751158291896, "timestamp": "2025-12-05T05:43:14.771115+00:00", "meta": {"OBJECT_NAME": "OCEANSAT-2", "OBJECT_ID": "2009-051A", "EPOCH": "2025-12-04T18:07:48.512640", "MEAN_MOTION": 13.99626492, "ECCENTRICITY": 0.0016533, "INCLINATION": 98.2229, "RA_OF_ASC_NODE": 340.1657, "ARG_OF_PERICENTER": 65.8249, "MEAN_ANOMALY": 294.4644, "EPHEMERIS_TYPE": 0, "CLASSIFICATION_TYPE": "U", "NORAD_CAT_ID": 35931, "ELEMENT_SET_NO": 999, "REV_AT_EPOCH": 85213, "BSTAR": -6.3473e-05, "MEAN_MOTION_DOT": -1.3e-06, "MEAN_MOTION_DDOT": 0}, "tle": {"line1": "1 35931U 09051A   25338.75542260 -.00000130  00000+0 -63473-4 0  9990", "line2": "2 35931  98.2229 340.1657 0016533  65.8249 294.4644 13.99626492852136"}}, "geometry": {"type": "Point", "coordinates": [55.478694818280196, -81.4811953772046]}}, {"type": "Feature", "properties": {"norad_id": 35946, "name": "WORLDVIEW-2 (WV-2)", "group": "resource", "lat": 81.21444852321609, "lon": -24.363937118690014, "alt_km": 754.9526949077081, "timestamp": "2025-12-05T05:43:14.771125+00:00", "meta": {"OBJECT_NAME": "WORLDVIEW-2 (WV-2)", "OBJECT_ID": "2009-055A", "EPOCH": "2025-12-04T15:57:06.520320", "MEAN_MOTION": 14.37647123, "ECCENTRICITY": 0.0005431, "INCLINATION": 98.477, "RA_OF_ASC_NODE": 49.8618, "ARG_OF_PERICENTER": 86.3021, "MEAN_ANOMALY": 273.8787, "EPHEMERIS_TYPE": 0, "CLASSIFICATION_TYPE": "U", "NORAD_CAT_ID": 35946, "ELEMENT_SET_NO": 999, "REV_AT_EPOCH": 84769, "BSTAR": 0.00014761, "MEAN_MOTION_DOT": 4e-06, "MEAN_MOTION_DDOT": 0}, "tle": {"line1": "1 35946U 09055A   25338.66465880  .00000400  00000+0  14761-3 0  9995", "line2": "2 35946  98.4770  49.8618 0005431  86.3021 273.8787 14.37647123847697"}}, "geometry": {"type": "Point", "coordinates": [-24.363937118690014, 81.21444852321609]}}, {"type": "Feature", "properties": {"norad_id": 36036, "name": "SMOS", "group": "resource", "lat": 65.73826790378769, "lon": 145.16717728808317, "alt_km": 752.0325599530215, "timestamp": "2025-12-05T05:43:14.771136+00:00", "meta": {"OBJECT_NAME": "SMOS", "OBJECT_ID": "2009-059A", "EPOCH": "2025-12-04T12:43:52.487040", "MEAN_MOTION": 14.39791112, "ECCENTRICITY": 0.0001012, "INCLINATION": 98.4384, "RA_OF_ASC_NODE": 163.7001, "ARG_OF_PERICENTER": 72.1141, "MEAN_ANOMALY": 288.0158, "EPHEMERIS_TYPE": 0, "CLASSIFICATION_TYPE": "U", "NORAD_CAT_ID": 36036, "ELEMENT_SET_NO": 999, "REV_AT_EPOCH": 84544, "BSTAR": 0.00025732, "MEAN_MOTION_DOT": 7.63e-06, "MEAN_MOTION_DDOT": 0}, "tle": {"line1": "1 36036U 09059A   25338.53046860  .00000763  00000+0  25732-3 0  9991", "line2": "2 36036  98.4384 163.7001 0001012  72.1141 288.0158 14.39791112845449"}}, "geometry": {"type": "Point", "coordinates": [145.16717728808317, 65.73826790378769]}}, {"type": "Feature", "properties": {"norad_id": 36110, "name": "YAOGAN-7", "group": "resource", "lat": -51.42564773279008, "lon": -128.78280384188912, "alt_km": 626.8464823718596, "timestamp": "2025-12-05T05:43:14.771146+00:00", "meta": {"OBJECT_NAME": "YAOGAN-7", "OBJECT_ID": "2009-069A", "EPOCH": "2025-12-04T15:19:45.778656", "MEAN_MOTION": 14.77713846, "ECCENTRICITY": 0.0023733, "INCLINATION": 98.0302, "RA_OF_ASC_NODE": 220.4244, "ARG_OF_PERICENTER": 308.6984, "MEAN_ANOMALY": 51.2103, "EPHEMERIS_TYPE": 0, "CLASSIFICATION_TYPE": "U", "NORAD_CAT_ID": 36110, "ELEMENT_SET_NO": 999, "REV_AT_EPOCH": 86089, "BSTAR": 0.00019835, "MEAN_MOTION_DOT": 1.374e-05, "MEAN_MOTION_DDOT": 0}, "tle": {"line1": "1 36110U 09069A   25338.63872429  .00001374  00000+0  19835-3 0  9990", "line2": "2 36110  98.0302 220.4244 0023733 308.6984  51.2103 14.77713846860890"}}, "geometry": {"type": "Point", "coordinates": [-128.78280384188912, -51.42564773279008]}}, {"type": "Feature", "properties": {"norad_id": 36605, "name": "TANDEM-X", "group": "resource", "lat": 22.78790661311143, "lon": 167.87840247523337, "alt_km": 507.54365506235354, "timestamp": "2025-12-05T05:43:14.771156+00:00", "meta": {"OBJECT_NAME": "TANDEM-X", "OBJECT_ID": "2010-030A", "EPOCH": "2025-12-04T14:48:17.883360", "MEAN_MOTION": 15.19148899, "ECCENTRICITY": 0.0001864, "INCLINATION": 97.4452, "RA_OF_ASC_NODE": 344.1166, "ARG_OF_PERICENTER": 95.4078, "MEAN_ANOMALY": 264.7369, "EPHEMERIS_TYPE": 0, "CLASSIFICATION_TYPE": "U", "NORAD_CAT_ID": 36605, "ELEMENT_SET_NO": 999, "REV_AT_EPOCH": 85710, "BSTAR": 0.00011882, "MEAN_MOTION_DOT": 2.429e-05, "MEAN_MOTION_DDOT": 0}, "tle": {"line1": "1 36605U 10030A   25338.61687365  .00002429  00000+0  11882-3 0  9996", "line2": "2 36605  97.4452 344.1166 0001864  95.4078 264.7369 15.19148899857103"}}, "geometry": {"type": "Point", "coordinates": [167.87840247523337, 22.78790661311143]}}, {"type": "Feature", "properties": {"norad_id": 36795, "name": "CARTOSAT-2B", "group": "resource", "lat": -27.293508139441684, "lon": -155.53669062495797, "alt_km": 641.7821646491402, "timestamp": "2025-12-05T05:43:14.771179+00:00", "meta": {"OBJECT_NAME": "CARTOSAT-2B", "OBJECT_ID": "2010-035A", "EPOCH": "2025-12-04T17:25:08.567040", "MEAN_MOTION": 14.78770196, "ECCENTRICITY": 0.0012894, "INCLINATION": 97.7865, "RA_OF_ASC_NODE": 28.0161, "ARG_OF_PERICENTER": 101.124, "MEAN_ANOMALY": 259.1422, "EPHEMERIS_TYPE": 0, "CLASSIFICATION_TYPE": "U", "NORAD_CAT_ID": 36795, "ELEMENT_SET_NO": 999, "REV_AT_EPOCH": 83111, "BSTAR": 0.00020963, "MEAN_MOTION_DOT": 1.492e-05, "MEAN_MOTION_DDOT": 0}, "tle": {"line1": "1 36795U 10035A   25338.72579360  .00001492  00000+0  20963-3 0  9997", "line2": "2 36795  97.7865  28.0161 0012894 101.1240 259.1422 14.78770196831114"}}, "geometry": {"type": "Point", "coordinates": [-155.53669062495797, -27.293508139441684]}}, {"type": "Feature", "properties": {"norad_id": 36834, "name": "YAOGAN-10", "group": "resource", "lat": 48.71992757833925, "lon": -171.76680193166902, "alt_km": 609.8602159896773, "timestamp": "2025-12-05T05:43:14.771192+00:00", "meta": {"OBJECT_NAME": "YAOGAN-10", "OBJECT_ID": "2010-038A", "EPOCH": "2025-12-04T18:18:32.509728", "MEAN_MOTION": 14.84560446, "ECCENTRICITY": 0.0001515, "INCLINATION": 97.9146, "RA_OF_ASC_NODE": 358.6436, "ARG_OF_PERICENTER": 85.4321, "MEAN_ANOMALY": 25.4685, "EPHEMERIS_TYPE": 0, "CLASSIFICATION_TYPE": "U", "NORAD_CAT_ID": 36834, "ELEMENT_SET_NO": 999, "REV_AT_EPOCH": 82835, "BSTAR": 0.00033482, "MEAN_MOTION_DOT": 2.772e-05, "MEAN_MOTION_DDOT": 0}, "tle": {"line1": "1 36834U 10038A   25338.76287627  .00002772  00000+0  33482-3 0  9992", "line2": "2 36834  97.9146 358.6436 0001515  85.4321  25.4685 14.84560446828350"}}, "geometry": {"type": "Point", "coordinates": [-171.76680193166902, 48.71992757833925]}}]}